OBJECT_NAME,OBJECT_ID,EPOCH,MEAN_MOTION,ECCENTRICITY,INCLINATION,RA_OF_ASC_NODE,ARG_OF_PERICENTER,MEAN_ANOMALY,EPHEMERIS_TYPE,CLASSIFICATION_TYPE,NORAD_CAT_ID,ELEMENT_SET_NO,REV_AT_EPOCH,BSTAR,MEAN_MOTION_DOT,MEAN_MOTION_DDOT
ONEWEB-0720,2023-029AR,2026-07-01T01:46:18.050592,13.19725067,.0001854,87.9180,302.2110,109.7788,250.3545,0,U,55835,999,16067,.11561E-3,.59E-6,0
ONEWEB-0537,2023-043A,2026-07-01T02:26:56.330304,13.16593639,.0002251,87.9085,226.0080,93.7828,266.3560,0,U,56046,999,16079,-.52524E-4,-.7E-7,0
ONEWEB-0538,2023-043B,2026-07-01T02:17:48.899040,13.16593504,.0002248,87.9089,226.0118,100.7043,259.4341,0,U,56047,999,16080,-.3647E-3,-.127E-5,0
ONEWEB-0546,2023-043C,2026-07-01T01:59:34.478016,13.16593386,.0002581,87.9087,226.0145,85.1150,275.0275,0,U,56048,999,16079,-.46655E-3,-.165E-5,0
ONEWEB-0547,2023-043D,2026-07-01T02:24:49.144320,13.21826217,.0002096,87.9251,241.2062,103.2035,256.9333,0,U,56049,999,16006,.10793E-3,.58E-6,0
ONEWEB-0548,2023-043E,2026-07-01T02:34:54.627744,13.16593545,.0001715,87.9083,226.0055,85.4533,274.6794,0,U,56050,999,16079,.19049E-3,.86E-6,0
ONEWEB-0549,2023-043F,2026-07-01T02:16:20.841024,13.21826421,.0002352,87.9242,241.2131,104.5211,255.6184,0,U,56051,999,16006,.13084E-3,.67E-6,0
ONEWEB-0550,2023-043G,2026-07-01T01:56:58.973568,13.21826247,.0001838,87.9245,241.2136,96.6325,263.5018,0,U,56052,999,16006,-.43167E-4,-.5E-7,0
ONEWEB-0551,2023-043H,2026-07-01T03:35:40.299072,13.15547278,.0002197,87.9002,256.4445,108.0942,252.0427,0,U,56053,999,15823,.10528E-3,.52E-6,0
ONEWEB-0552,2023-043J,2026-07-01T03:38:41.078112,13.21825468,.0001948,87.9241,241.2047,103.1137,257.0214,0,U,56054,999,16007,.79314E-4,.46E-6,0
ONEWEB-0553,2023-043K,2026-07-01T02:08:41.587008,13.16593575,.0002263,87.9087,226.0134,86.7944,273.3446,0,U,56055,999,16080,-.19774E-3,-.63E-6,0
ONEWEB-0554,2023-043L,2026-07-01T03:39:53.817408,13.16594698,.0001628,87.9084,226.0096,84.7554,275.3762,0,U,56056,999,16079,-.6719E-3,-.244E-5,0
ONEWEB-0555,2023-043M,2026-07-01T02:45:09.902016,13.16593394,.0002446,87.9092,226.0056,83.3973,276.7436,0,U,56057,999,16079,.42133E-3,.174E-5,0
ONEWEB-0557,2023-043N,2026-07-01T03:05:41.184096,13.16594331,.0002044,87.9088,226.0123,59.4395,300.6937,0,U,56058,999,16079,-.61198E-4,-.11E-6,0
ONEWEB-0558,2023-043P,2026-07-01T03:28:59.981952,13.21824971,.0002334,87.9245,241.2013,102.4636,257.6759,0,U,56059,999,16008,.12134E-3,.63E-6,0
ONEWEB-0559,2023-043Q,2026-07-01T03:12:02.056032,13.21826024,.0002067,87.9248,241.1993,103.0094,257.1270,0,U,56060,999,16009,.32641E-4,.26E-6,0
ONEWEB-0566,2023-043R,2026-07-01T03:02:20.928768,13.21827575,.0002124,87.9247,241.1984,106.6854,253.4514,0,U,56061,999,16007,.1998E-4,.21E-6,0
ONEWEB-0568,2023-043S,2026-07-01T03:30:47.594880,13.16594996,.0002261,87.9088,225.9992,90.4927,269.6463,0,U,56062,999,16081,-.1924E-3,-.61E-6,0
ONEWEB-0574,2023-043T,2026-07-01T02:52:41.310048,13.21824980,.0001949,87.9253,241.2039,92.1320,268.0037,0,U,56063,999,16011,.25919E-3,.12E-5,0
ONEWEB-0575,2023-043U,2026-07-01T03:21:39.685824,13.16595105,.000199,87.9090,225.9964,83.2915,276.8442,0,U,56064,999,16080,-.1152E-4,.8E-7,0
ONEWEB-0576,2023-043V,2026-07-01T02:54:17.629632,13.16595150,.0002003,87.9089,226.0088,88.6177,271.5183,0,U,56065,999,16079,.31472E-3,.133E-5,0
ONEWEB-0577,2023-043W,2026-07-01T03:03:25.706304,13.16595420,.000176,87.9095,226.0045,73.0122,287.1202,0,U,56066,999,16082,.36975E-3,.154E-5,0
ONEWEB-0578,2023-043X,2026-07-01T02:33:18.830016,13.21825277,.000227,87.9249,241.2033,91.1869,268.9525,0,U,56067,999,16007,.18432E-3,.89E-6,0
ONEWEB-0579,2023-043Y,2026-06-30T13:38:10.231008,13.21827389,.00018794,87.9252,241.3082,104.6490,255.4852,0,U,56068,999,16001,.80746497E-4,.46E-6,0
ONEWEB-0581,2023-043Z,2026-07-01T03:12:32.385024,13.16594663,.0001709,87.9089,226.0145,81.0919,279.0405,0,U,56069,999,16079,.28579E-3,.122E-5,0
ONEWEB-0609,2023-043AA,2026-06-30T22:44:45.042720,13.15549604,.0002089,87.8994,256.4702,100.6156,259.5210,0,U,56070,999,15824,.10468E-3,.52E-6,0
ONEWEB-0613,2023-043AB,2026-06-30T22:41:20.335200,13.15547246,.0001985,87.8995,256.4830,107.3630,252.7717,0,U,56071,999,15824,.18117E-3,.81E-6,0
ONEWEB-0630,2023-043AC,2026-06-30T22:34:30.648864,13.15547051,.0001963,87.9002,256.4563,105.8120,254.3227,0,U,56072,999,15823,-.16183E-3,-.48E-6,0
ONEWEB-0632,2023-043AD,2026-06-30T22:27:39.456576,13.15548133,.0001855,87.8997,256.4747,96.8602,263.2740,0,U,56073,999,15823,-.64254E-3,-.229E-5,0
ONEWEB-0633,2023-043AE,2026-06-30T22:18:32.088384,13.15547961,.0002137,87.9005,256.4526,111.2334,248.9025,0,U,56074,999,15821,-.39876E-3,-.137E-5,0
