ONEWEB-0720             
1 55835U 23029AR  26182.07382003  .00000059  00000+0  11561-3 0  9994
2 55835  87.9180 302.2110 0001854 109.7788 250.3545 13.19725067160673
ONEWEB-0537             
1 56046U 23043A   26182.10204086 -.00000007  00000+0 -52524-4 0  9993
2 56046  87.9085 226.0080 0002251  93.7828 266.3560 13.16593639160792
ONEWEB-0538             
1 56047U 23043B   26182.09570485 -.00000127  00000+0 -36470-3 0  9995
2 56047  87.9089 226.0118 0002248 100.7043 259.4341 13.16593504160806
ONEWEB-0546             
1 56048U 23043C   26182.08303794 -.00000165  00000+0 -46655-3 0  9990
2 56048  87.9087 226.0145 0002581  85.1150 275.0275 13.16593386160796
ONEWEB-0547             
1 56049U 23043D   26182.10056880  .00000058  00000+0  10793-3 0  9998
2 56049  87.9251 241.2062 0002096 103.2035 256.9333 13.21826217160063
ONEWEB-0548             
1 56050U 23043E   26182.10757671  .00000086  00000+0  19049-3 0  9990
2 56050  87.9083 226.0055 0001715  85.4533 274.6794 13.16593545160799
ONEWEB-0549             
1 56051U 23043F   26182.09468566  .00000067  00000+0  13084-3 0  9993
2 56051  87.9242 241.2131 0002352 104.5211 255.6184 13.21826421160065
ONEWEB-0550             
1 56052U 23043G   26182.08123812 -.00000005  00000+0 -43167-4 0  9995
2 56052  87.9245 241.2136 0001838  96.6325 263.5018 13.21826247160069
ONEWEB-0551             
1 56053U 23043H   26182.14977198  .00000052  00000+0  10528-3 0  9991
2 56053  87.9002 256.4445 0002197 108.0942 252.0427 13.15547278158234
ONEWEB-0552             
1 56054U 23043J   26182.15186433  .00000046  00000+0  79314-4 0  9999
2 56054  87.9241 241.2047 0001948 103.1137 257.0214 13.21825468160076
ONEWEB-0553             
1 56055U 23043K   26182.08937022 -.00000063  00000+0 -19774-3 0  9994
2 56055  87.9087 226.0134 0002263  86.7944 273.3446 13.16593575160800
ONEWEB-0554             
1 56056U 23043L   26182.15270622 -.00000244  00000+0 -67190-3 0  9995
2 56056  87.9084 226.0096 0001628  84.7554 275.3762 13.16594698160792
ONEWEB-0555             
1 56057U 23043M   26182.11469794  .00000174  00000+0  42133-3 0  9992
2 56057  87.9092 226.0056 0002446  83.3973 276.7436 13.16593394160792
ONEWEB-0557             
1 56058U 23043N   26182.12894889 -.00000011  00000+0 -61198-4 0  9996
2 56058  87.9088 226.0123 0002044  59.4395 300.6937 13.16594331160794
ONEWEB-0558             
1 56059U 23043P   26182.14513868  .00000063  00000+0  12134-3 0  9994
2 56059  87.9245 241.2013 0002334 102.4636 257.6759 13.21824971160083
ONEWEB-0559             
1 56060U 23043Q   26182.13335713  .00000026  00000+0  32641-4 0  9991
2 56060  87.9248 241.1993 0002067 103.0094 257.1270 13.21826024160097
ONEWEB-0566             
1 56061U 23043R   26182.12663112  .00000021  00000+0  19980-4 0  9994
2 56061  87.9247 241.1984 0002124 106.6854 253.4514 13.21827575160074
ONEWEB-0568             
1 56062U 23043S   26182.14638420 -.00000061  00000+0 -19240-3 0  9995
2 56062  87.9088 225.9992 0002261  90.4927 269.6463 13.16594996160816
ONEWEB-0574             
1 56063U 23043T   26182.11992257  .00000120  00000+0  25919-3 0  9998
2 56063  87.9253 241.2039 0001949  92.1320 268.0037 13.21824980160110
ONEWEB-0575             
1 56064U 23043U   26182.14004266  .00000008  00000+0 -11520-4 0  9996
2 56064  87.9090 225.9964 0001990  83.2915 276.8442 13.16595105160804
ONEWEB-0576             
1 56065U 23043V   26182.12103738  .00000133  00000+0  31472-3 0  9994
2 56065  87.9089 226.0088 0002003  88.6177 271.5183 13.16595150160799
ONEWEB-0577             
1 56066U 23043W   26182.12738086  .00000154  00000+0  36975-3 0  9991
2 56066  87.9095 226.0045 0001760  73.0122 287.1202 13.16595420160826
ONEWEB-0578             
1 56067U 23043X   26182.10646794  .00000089  00000+0  18432-3 0  9999
2 56067  87.9249 241.2033 0002270  91.1869 268.9525 13.21825277160074
ONEWEB-0579             
1 56068U 23043Y   26181.56817397  .00000046  00000+0  80746-4 0  9999
2 56068  87.9252 241.3082 0001879 104.6490 255.4852 13.21827389160012
ONEWEB-0581             
1 56069U 23043Z   26182.13370816  .00000122  00000+0  28579-3 0  9994
2 56069  87.9089 226.0145 0001709  81.0919 279.0405 13.16594663160798
ONEWEB-0609             
1 56070U 23043AA  26181.94774355  .00000052  00000+0  10468-3 0  9990
2 56070  87.8994 256.4702 0002089 100.6156 259.5210 13.15549604158241
ONEWEB-0613             
1 56071U 23043AB  26181.94537425  .00000081  00000+0  18117-3 0  9997
2 56071  87.8995 256.4830 0001985 107.3630 252.7717 13.15547246158247
ONEWEB-0630             
1 56072U 23043AC  26181.94063251 -.00000048  00000+0 -16183-3 0  9995
2 56072  87.9002 256.4563 0001963 105.8120 254.3227 13.15547051158231
ONEWEB-0632             
1 56073U 23043AD  26181.93587334 -.00000229  00000+0 -64254-3 0  9991
2 56073  87.8997 256.4747 0001855  96.8602 263.2740 13.15548133158233
ONEWEB-0633             
1 56074U 23043AE  26181.92953806 -.00000137  00000+0 -39876-3 0  9992
2 56074  87.9005 256.4526 0002137 111.2334 248.9025 13.15547961158210
